start=new Date('2023-03-11T00:00:00.000Z').valueOf();
sats=[{"TIME_SYSTEM":"UTC","ECCENTRICITY":"0.00010550","REV_AT_EPOCH":"6495","COUNTRY_CODE":"US","ARG_OF_PERICENTER":"88.7670","CENTER_NAME":"EARTH","MEAN_MOTION_DDOT":"0.0000000000000","SITE":"AFETR","RCS_SIZE":"LARGE","GP_ID":"227817567","REF_FRAME":"TEME","PERIOD":"95.437","MEAN_ANOMALY":"271.3443","EPOCH":"2023-03-10T16:29:32.244000","OBJECT_ID":"2022-001AH","TLE_LINE1":"1 50834U 22001AH  23069.68717875  .00005341  00000-0  35335-3 0  9999","ELEMENT_SET_NO":"999","FILE":"3856975","TLE_LINE2":"2 50834  53.2159  54.7760 0001055  88.7670 271.3443 15.08843038 64951","PERIAPSIS":"539.006","NORAD_CAT_ID":"50834","EPHEMERIS_TYPE":"0","APOAPSIS":"540.466","INCLINATION":"53.2159","RA_OF_ASC_NODE":"54.7760","SEMIMAJOR_AXIS":"6917.871","CLASSIFICATION_TYPE":"U","MEAN_ELEMENT_THEORY":"SGP4","MEAN_MOTION":"15.08843038","DECAY_DATE":null,"MEAN_MOTION_DOT":"0.00005341","BSTAR":"0.00035335000000","OBJECT_TYPE":"PAYLOAD","LAUNCH_DATE":"2022-01-06","OBJECT_NAME":"STARLINK-3331"},{"PERIOD":"95.438","REF_FRAME":"TEME","GP_ID":"227816316","EPOCH":"2023-03-10T22:41:52.454400","MEAN_ANOMALY":"268.6157","RCS_SIZE":"LARGE","CENTER_NAME":"EARTH","SITE":"AFETR","MEAN_MOTION_DDOT":"0.0000000000000","ECCENTRICITY":"0.00020770","TIME_SYSTEM":"UTC","ARG_OF_PERICENTER":"91.5073","COUNTRY_CODE":"US","REV_AT_EPOCH":"6499","OBJECT_NAME":"STARLINK-3310","BSTAR":"-0.00006378300000","MEAN_MOTION_DOT":"-0.00001303","LAUNCH_DATE":"2022-01-06","OBJECT_TYPE":"PAYLOAD","RA_OF_ASC_NODE":"53.6269","SEMIMAJOR_AXIS":"6917.901","INCLINATION":"53.2179","APOAPSIS":"541.202","EPHEMERIS_TYPE":"0","DECAY_DATE":null,"MEAN_MOTION":"15.08833382","MEAN_ELEMENT_THEORY":"SGP4","CLASSIFICATION_TYPE":"U","OBJECT_ID":"2022-001AJ","NORAD_CAT_ID":"50835","PERIAPSIS":"538.329","TLE_LINE2":"2 50835  53.2179  53.6269 0002077  91.5073 268.6157 15.08833382 64996","TLE_LINE1":"1 50835U 22001AJ  23069.94574600 -.00001303  00000-0 -63783-4 0  9991","ELEMENT_SET_NO":"999","FILE":"3856975"},{"OBJECT_NAME":"STARLINK-3330","BSTAR":"0.00013342000000","MEAN_MOTION_DOT":"0.00001836","LAUNCH_DATE":"2022-01-06","OBJECT_TYPE":"PAYLOAD","RA_OF_ASC_NODE":"54.7574","SEMIMAJOR_AXIS":"6917.883","INCLINATION":"53.2151","APOAPSIS":"541.116","EPHEMERIS_TYPE":"0","MEAN_MOTION":"15.08839114","DECAY_DATE":null,"MEAN_ELEMENT_THEORY":"SGP4","CLASSIFICATION_TYPE":"U","OBJECT_ID":"2022-001AK","NORAD_CAT_ID":"50836","PERIAPSIS":"538.380","TLE_LINE2":"2 50836  53.2151  54.7574 0001978  82.6530 277.4687 15.08839114 64856","TLE_LINE1":"1 50836U 22001AK  23069.69086413  .00001836  00000-0  13342-3 0  9998","FILE":"3856975","ELEMENT_SET_NO":"999","PERIOD":"95.438","REF_FRAME":"TEME","GP_ID":"227816566","EPOCH":"2023-03-10T16:34:50.660832","MEAN_ANOMALY":"277.4687","RCS_SIZE":"LARGE","CENTER_NAME":"EARTH","SITE":"AFETR","MEAN_MOTION_DDOT":"0.0000000000000","ECCENTRICITY":"0.00019780","TIME_SYSTEM":"UTC","ARG_OF_PERICENTER":"82.6530","COUNTRY_CODE":"US","REV_AT_EPOCH":"6485"},{"OBJECT_NAME":"STARLINK-3318","BSTAR":"0.00017363000000","MEAN_MOTION_DOT":"0.00002475","LAUNCH_DATE":"2022-01-06","OBJECT_TYPE":"PAYLOAD","RA_OF_ASC_NODE":"43.7474","SEMIMAJOR_AXIS":"6917.930","INCLINATION":"53.2166","APOAPSIS":"540.760","EPHEMERIS_TYPE":"0","MEAN_MOTION":"15.08823620","DECAY_DATE":null,"MEAN_ELEMENT_THEORY":"SGP4","CLASSIFICATION_TYPE":"U","OBJECT_ID":"2022-001AL","NORAD_CAT_ID":"50837","PERIAPSIS":"538.831","TLE_LINE2":"2 50837  53.2166  43.7474 0001394  78.7600 281.3549 15.08823620 65134","TLE_LINE1":"1 50837U 22001AL  23069.91626407  .00002475  00000-0  17363-3 0  9994","ELEMENT_SET_NO":"999","FILE":"3856975","PERIOD":"95.439","REF_FRAME":"TEME","GP_ID":"227817317","EPOCH":"2023-03-10T21:59:25.215648","MEAN_ANOMALY":"281.3549","RCS_SIZE":"LARGE","CENTER_NAME":"EARTH","SITE":"AFETR","MEAN_MOTION_DDOT":"0.0000000000000","ECCENTRICITY":"0.00013940","TIME_SYSTEM":"UTC","ARG_OF_PERICENTER":"78.7600","COUNTRY_CODE":"US","REV_AT_EPOCH":"6513"},{"RCS_SIZE":"LARGE","REF_FRAME":"TEME","PERIOD":"95.090","GP_ID":"227818067","EPOCH":"2023-03-10T15:50:06.873792","MEAN_ANOMALY":"216.4923","ECCENTRICITY":"0.00012900","TIME_SYSTEM":"UTC","ARG_OF_PERICENTER":"143.6159","REV_AT_EPOCH":"6497","COUNTRY_CODE":"US","CENTER_NAME":"EARTH","SITE":"AFETR","MEAN_MOTION_DDOT":"0.0000000000000","BSTAR":"0.00251480000000","MEAN_MOTION_DOT":"0.00046642","LAUNCH_DATE":"2022-01-06","OBJECT_TYPE":"PAYLOAD","OBJECT_NAME":"STARLINK-3322","OBJECT_ID":"2022-001AM","PERIAPSIS":"522.068","NORAD_CAT_ID":"50838","TLE_LINE1":"1 50838U 22001AM  23069.65980178  .00046642  00000-0  25148-2 0  9997","ELEMENT_SET_NO":"999","FILE":"3856975","TLE_LINE2":"2 50838  53.2174  53.5379 0001290 143.6159 216.4923 15.14348848 64970","INCLINATION":"53.2174","SEMIMAJOR_AXIS":"6901.093","RA_OF_ASC_NODE":"53.5379","EPHEMERIS_TYPE":"0","APOAPSIS":"523.848","MEAN_ELEMENT_THEORY":"SGP4","MEAN_MOTION":"15.14348848","DECAY_DATE":null,"CLASSIFICATION_TYPE":"U"},{"OBJECT_NAME":"STARLINK-3320","MEAN_MOTION_DOT":"0.00012660","BSTAR":"0.00081190000000","OBJECT_TYPE":"PAYLOAD","LAUNCH_DATE":"2022-01-06","APOAPSIS":"541.841","EPHEMERIS_TYPE":"0","SEMIMAJOR_AXIS":"6917.854","RA_OF_ASC_NODE":"53.6693","INCLINATION":"53.2153","CLASSIFICATION_TYPE":"U","DECAY_DATE":null,"MEAN_MOTION":"15.08848656","MEAN_ELEMENT_THEORY":"SGP4","OBJECT_ID":"2022-001AN","TLE_LINE2":"2 50839  53.2153  53.6693 0003068  76.4945 283.6389 15.08848656 64987","FILE":"3856975","TLE_LINE1":"1 50839U 22001AN  23069.93374376  .00012660  00000-0  81190-3 0  9999","ELEMENT_SET_NO":"999","NORAD_CAT_ID":"50839","PERIAPSIS":"537.597","GP_ID":"227816815","PERIOD":"95.437","REF_FRAME":"TEME","MEAN_ANOMALY":"283.6389","EPOCH":"2023-03-10T22:24:35.460864","RCS_SIZE":"LARGE","CENTER_NAME":"EARTH","MEAN_MOTION_DDOT":"0.0000000000000","SITE":"AFETR","TIME_SYSTEM":"UTC","ECCENTRICITY":"0.00030680","COUNTRY_CODE":"US","REV_AT_EPOCH":"6498","ARG_OF_PERICENTER":"76.4945"},{"MEAN_ANOMALY":"268.1129","EPOCH":"2023-03-10T09:36:11.622528","GP_ID":"227817065","PERIOD":"95.435","REF_FRAME":"TEME","RCS_SIZE":"LARGE","MEAN_MOTION_DDOT":"0.0000000000000","SITE":"AFETR","CENTER_NAME":"EARTH","REV_AT_EPOCH":"6490","COUNTRY_CODE":"US","ARG_OF_PERICENTER":"91.9988","TIME_SYSTEM":"UTC","ECCENTRICITY":"0.00010880","OBJECT_NAME":"STARLINK-3295","OBJECT_TYPE":"PAYLOAD","LAUNCH_DATE":"2022-01-06","MEAN_MOTION_DOT":"0.00041718","BSTAR":"0.00262150000000","CLASSIFICATION_TYPE":"U","DECAY_DATE":null,"MEAN_MOTION":"15.08872570","MEAN_ELEMENT_THEORY":"SGP4","APOAPSIS":"540.398","EPHEMERIS_TYPE":"0","RA_OF_ASC_NODE":"56.0672","SEMIMAJOR_AXIS":"6917.781","INCLINATION":"53.2174","TLE_LINE2":"2 50840  53.2174  56.0672 0001088  91.9988 268.1129 15.08872570 64909","TLE_LINE1":"1 50840U 22001AP  23069.40013452  .00041718  00000-0  26215-2 0  9990","ELEMENT_SET_NO":"999","FILE":"3856975","NORAD_CAT_ID":"50840","PERIAPSIS":"538.893","OBJECT_ID":"2022-001AP"},{"PERIOD":"95.438","REF_FRAME":"TEME","GP_ID":"227817817","EPOCH":"2023-03-10T16:13:38.676576","MEAN_ANOMALY":"278.0029","RCS_SIZE":"LARGE","CENTER_NAME":"EARTH","SITE":"AFETR","MEAN_MOTION_DDOT":"0.0000000000000","ECCENTRICITY":"0.00015850","TIME_SYSTEM":"UTC","ARG_OF_PERICENTER":"82.1143","COUNTRY_CODE":"US","REV_AT_EPOCH":"6495","OBJECT_NAME":"STARLINK-3300","BSTAR":"-0.00005012500000","MEAN_MOTION_DOT":"-0.00001086","LAUNCH_DATE":"2022-01-06","OBJECT_TYPE":"PAYLOAD","RA_OF_ASC_NODE":"54.8242","SEMIMAJOR_AXIS":"6917.888","INCLINATION":"53.2156","APOAPSIS":"540.849","EPHEMERIS_TYPE":"0","DECAY_DATE":null,"MEAN_MOTION":"15.08837581","MEAN_ELEMENT_THEORY":"SGP4","CLASSIFICATION_TYPE":"U","OBJECT_ID":"2022-001AQ","NORAD_CAT_ID":"50841","PERIAPSIS":"538.656","TLE_LINE2":"2 50841  53.2156  54.8242 0001585  82.1143 278.0029 15.08837581 64953","ELEMENT_SET_NO":"999","TLE_LINE1":"1 50841U 22001AQ  23069.67614209 -.00001086  00000-0 -50125-4 0  9992","FILE":"3856975"},{"PERIOD":"95.437","REF_FRAME":"TEME","GP_ID":"227817568","EPOCH":"2023-03-10T22:13:59.111040","MEAN_ANOMALY":"274.5382","RCS_SIZE":"LARGE","CENTER_NAME":"EARTH","SITE":"AFETR","MEAN_MOTION_DDOT":"0.0000000000000","ECCENTRICITY":"0.00023840","TIME_SYSTEM":"UTC","ARG_OF_PERICENTER":"85.5883","REV_AT_EPOCH":"6498","COUNTRY_CODE":"US","OBJECT_NAME":"STARLINK-3302","BSTAR":"0.00094812000000","MEAN_MOTION_DOT":"0.00014837","LAUNCH_DATE":"2022-01-06","OBJECT_TYPE":"PAYLOAD","SEMIMAJOR_AXIS":"6917.855","RA_OF_ASC_NODE":"53.7041","INCLINATION":"53.2163","APOAPSIS":"541.370","EPHEMERIS_TYPE":"0","DECAY_DATE":null,"MEAN_MOTION":"15.08848197","MEAN_ELEMENT_THEORY":"SGP4","CLASSIFICATION_TYPE":"U","OBJECT_ID":"2022-001AR","NORAD_CAT_ID":"50842","PERIAPSIS":"538.071","TLE_LINE2":"2 50842  53.2163  53.7041 0002384  85.5883 274.5382 15.08848197 64984","FILE":"3856975","TLE_LINE1":"1 50842U 22001AR  23069.92637860  .00014837  00000-0  94812-3 0  9995","ELEMENT_SET_NO":"999"},{"RCS_SIZE":"LARGE","EPOCH":"2023-03-10T16:24:14.558976","MEAN_ANOMALY":"261.3794","PERIOD":"95.437","REF_FRAME":"TEME","GP_ID":"227816317","ARG_OF_PERICENTER":"98.7358","REV_AT_EPOCH":"6495","COUNTRY_CODE":"US","ECCENTRICITY":"0.00014090","TIME_SYSTEM":"UTC","SITE":"AFETR","MEAN_MOTION_DDOT":"0.0000000000000","CENTER_NAME":"EARTH","LAUNCH_DATE":"2022-01-06","OBJECT_TYPE":"PAYLOAD","BSTAR":"0.00022736000000","MEAN_MOTION_DOT":"0.00003332","OBJECT_NAME":"STARLINK-3325","NORAD_CAT_ID":"50843","PERIAPSIS":"538.767","TLE_LINE2":"2 50843  53.2152  54.7914 0001409  98.7358 261.3794 15.08841125 64955","TLE_LINE1":"1 50843U 22001AS  23069.68350184  .00003332  00000-0  22736-3 0  9994","ELEMENT_SET_NO":"999","FILE":"3856975","OBJECT_ID":"2022-001AS","DECAY_DATE":null,"MEAN_MOTION":"15.08841125","MEAN_ELEMENT_THEORY":"SGP4","CLASSIFICATION_TYPE":"U","RA_OF_ASC_NODE":"54.7914","SEMIMAJOR_AXIS":"6917.877","INCLINATION":"53.2152","APOAPSIS":"540.717","EPHEMERIS_TYPE":"0"}];
